{
  "type": "FeatureCollection",
  "features": [
    {
      "type": "Feature",
      "properties": {
        "norad_id": 34815,
        "name": "COSMOS 2251 DEB",
        "group": "cosmos-2251-debris",
        "lat": 72.89821364995888,
        "lon": -14.300217469126977,
        "alt_km": 664.1788941991754,
        "timestamp": "2025-12-16T15:45:51.441087+00:00",
        "meta_object_name": "COSMOS 2251 DEB",
        "meta_object_id": "1993-036ABE",
        "meta_epoch": "2025-12-15T16:35:31.889184",
        "meta_mean_motion": 14.78351928,
        "meta_eccentricity": 0.00588561,
        "meta_inclination": 74.045,
        "meta_ra_of_asc_node": 236.0047,
        "meta_arg_of_pericenter": 304.4429,
        "meta_mean_anomaly": 55.1192,
        "meta_ephemeris_type": 0,
        "meta_classification_type": "U",
        "meta_norad_cat_id": 34815,
        "meta_element_set_no": 999,
        "meta_rev_at_epoch": 88671,
        "meta_bstar": 0.00052164545,
        "meta_mean_motion_dot": 3.873e-05,
        "meta_mean_motion_ddot": 0,
        "tle_line1": "1 34815U 93036ABE 25349.69134131  .00003873  00000+0  52165-3 0  9995",
        "tle_line2": "2 34815  74.0450 236.0047 0058856 304.4429  55.1192 14.78351928886714"
      },
      "geometry": {
        "type": "Point",
        "coordinates": [
          -14.300217469126977,
          72.89821364995888
        ]
      }
    },
    {
      "type": "Feature",
      "properties": {
        "norad_id": 34816,
        "name": "COSMOS 2251 DEB",
        "group": "cosmos-2251-debris",
        "lat": 25.178477386769174,
        "lon": -51.08098414362779,
        "alt_km": 845.8612304939006,
        "timestamp": "2025-12-16T15:45:51.441097+00:00",
        "meta_object_name": "COSMOS 2251 DEB",
        "meta_object_id": "1993-036ABF",
        "meta_epoch": "2025-12-15T18:06:42.079680",
        "meta_mean_motion": 13.58332319,
        "meta_eccentricity": 0.03733711,
        "meta_inclination": 73.8856,
        "meta_ra_of_asc_node": 138.2013,
        "meta_arg_of_pericenter": 202.1531,
        "meta_mean_anomaly": 224.4448,
        "meta_ephemeris_type": 0,
        "meta_classification_type": "U",
        "meta_norad_cat_id": 34816,
        "meta_element_set_no": 999,
        "meta_rev_at_epoch": 82824,
        "meta_bstar": 0.0011149526,
        "meta_mean_motion_dot": 1.255e-05,
        "meta_mean_motion_ddot": 0,
        "tle_line1": "1 34816U 93036ABF 25349.75465370  .00001255  00000+0  11150-2 0  9995",
        "tle_line2": "2 34816  73.8856 138.2013 0373371 202.1531 224.4448 13.58332319828247"
      },
      "geometry": {
        "type": "Point",
        "coordinates": [
          -51.08098414362779,
          25.178477386769174
        ]
      }
    },
    {
      "type": "Feature",
      "properties": {
        "norad_id": 34818,
        "name": "COSMOS 2251 DEB",
        "group": "cosmos-2251-debris",
        "lat": 29.201592034755468,
        "lon": 100.53133383807729,
        "alt_km": 780.937210334745,
        "timestamp": "2025-12-16T15:45:51.441107+00:00",
        "meta_object_name": "COSMOS 2251 DEB",
        "meta_object_id": "1993-036ABH",
        "meta_epoch": "2025-12-14T21:34:20.449056",
        "meta_mean_motion": 14.3696956,
        "meta_eccentricity": 0.00242733,
        "meta_inclination": 74.036,
        "meta_ra_of_asc_node": 292.9688,
        "meta_arg_of_pericenter": 8.1388,
        "meta_mean_anomaly": 50.4834,
        "meta_ephemeris_type": 0,
        "meta_classification_type": "U",
        "meta_norad_cat_id": 34818,
        "meta_element_set_no": 999,
        "meta_rev_at_epoch": 87401,
        "meta_bstar": 0.00022851933,
        "meta_mean_motion_dot": 6.53e-06,
        "meta_mean_motion_ddot": 0,
        "tle_line1": "1 34818U 93036ABH 25348.89884779  .00000653  00000+0  22852-3 0  9992",
        "tle_line2": "2 34818  74.0360 292.9688 0024273   8.1388  50.4834 14.36969560874019"
      },
      "geometry": {
        "type": "Point",
        "coordinates": [
          100.53133383807729,
          29.201592034755468
        ]
      }
    },
    {
      "type": "Feature",
      "properties": {
        "norad_id": 34819,
        "name": "COSMOS 2251 DEB",
        "group": "cosmos-2251-debris",
        "lat": 73.86380336547397,
        "lon": -142.7155353937458,
        "alt_km": 681.3570825176203,
        "timestamp": "2025-12-16T15:45:51.441118+00:00",
        "meta_object_name": "COSMOS 2251 DEB",
        "meta_object_id": "1993-036ABJ",
        "meta_epoch": "2025-12-15T09:59:05.716896",
        "meta_mean_motion": 14.64012574,
        "meta_eccentricity": 0.00156273,
        "meta_inclination": 74.0171,
        "meta_ra_of_asc_node": 137.5133,
        "meta_arg_of_pericenter": 231.5448,
        "meta_mean_anomaly": 159.4579,
        "meta_ephemeris_type": 0,
        "meta_classification_type": "U",
        "meta_norad_cat_id": 34819,
        "meta_element_set_no": 999,
        "meta_rev_at_epoch": 88268,
        "meta_bstar": 0.0010211066,
        "meta_mean_motion_dot": 5.336e-05,
        "meta_mean_motion_ddot": 0,
        "tle_line1": "1 34819U 93036ABJ 25349.41603839  .00005336  00000+0  10211-2 0  9996",
        "tle_line2": "2 34819  74.0171 137.5133 0015627 231.5448 159.4579 14.64012574882684"
      },
      "geometry": {
        "type": "Point",
        "coordinates": [
          -142.7155353937458,
          73.86380336547397
        ]
      }
    },
    {
      "type": "Feature",
      "properties": {
        "norad_id": 34823,
        "name": "COSMOS 2251 DEB",
        "group": "cosmos-2251-debris",
        "lat": 6.8836805930987275,
        "lon": 96.84516437166216,
        "alt_km": 819.4459658097749,
        "timestamp": "2025-12-16T15:45:51.441129+00:00",
        "meta_object_name": "COSMOS 2251 DEB",
        "meta_object_id": "1993-036ABN",
        "meta_epoch": "2025-12-15T06:43:32.774880",
        "meta_mean_motion": 14.54950016,
        "meta_eccentricity": 0.01545068,
        "meta_inclination": 74.0412,
        "meta_ra_of_asc_node": 97.4704,
        "meta_arg_of_pericenter": 181.6256,
        "meta_mean_anomaly": 178.4428,
        "meta_ephemeris_type": 0,
        "meta_classification_type": "U",
        "meta_norad_cat_id": 34823,
        "meta_element_set_no": 999,
        "meta_rev_at_epoch": 88418,
        "meta_bstar": 0.00053820564,
        "meta_mean_motion_dot": 2.686e-05,
        "meta_mean_motion_ddot": 0,
        "tle_line1": "1 34823U 93036ABN 25349.28024045  .00002686  00000+0  53821-3 0  9992",
        "tle_line2": "2 34823  74.0412  97.4704 0154506 181.6256 178.4428 14.54950016884189"
      },
      "geometry": {
        "type": "Point",
        "coordinates": [
          96.84516437166216,
          6.8836805930987275
        ]
      }
    },
    {
      "type": "Feature",
      "properties": {
        "norad_id": 34845,
        "name": "COSMOS 2251 DEB",
        "group": "cosmos-2251-debris",
        "lat": -26.479168106465835,
        "lon": -30.757454233743452,
        "alt_km": 745.512646061321,
        "timestamp": "2025-12-16T15:45:51.441139+00:00",
        "meta_object_name": "COSMOS 2251 DEB",
        "meta_object_id": "1993-036ABP",
        "meta_epoch": "2025-12-15T18:52:42.405888",
        "meta_mean_motion": 14.45864991,
        "meta_eccentricity": 0.00224498,
        "meta_inclination": 74.0238,
        "meta_ra_of_asc_node": 142.662,
        "meta_arg_of_pericenter": 303.0339,
        "meta_mean_anomaly": 56.8662,
        "meta_ephemeris_type": 0,
        "meta_classification_type": "U",
        "meta_norad_cat_id": 34845,
        "meta_element_set_no": 999,
        "meta_rev_at_epoch": 87510,
        "meta_bstar": 0.00028097651,
        "meta_mean_motion_dot": 9.74e-06,
        "meta_mean_motion_ddot": 0,
        "tle_line1": "1 34845U 93036ABP 25349.78660192  .00000974  00000+0  28098-3 0  9996",
        "tle_line2": "2 34845  74.0238 142.6620 0022449 303.0339  56.8662 14.45864991875108"
      },
      "geometry": {
        "type": "Point",
        "coordinates": [
          -30.757454233743452,
          -26.479168106465835
        ]
      }
    },
    {
      "type": "Feature",
      "properties": {
        "norad_id": 34846,
        "name": "COSMOS 2251 DEB",
        "group": "cosmos-2251-debris",
        "lat": 13.248115699581547,
        "lon": 70.58485462947266,
        "alt_km": 752.1563302998939,
        "timestamp": "2025-12-16T15:45:51.441149+00:00",
        "meta_object_name": "COSMOS 2251 DEB",
        "meta_object_id": "1993-036ABQ",
        "meta_epoch": "2025-12-15T19:05:23.449920",
        "meta_mean_motion": 14.47235054,
        "meta_eccentricity": 0.00261482,
        "meta_inclination": 74.031,
        "meta_ra_of_asc_node": 256.0607,
        "meta_arg_of_pericenter": 322.0428,
        "meta_mean_anomaly": 37.8887,
        "meta_ephemeris_type": 0,
        "meta_classification_type": "U",
        "meta_norad_cat_id": 34846,
        "meta_element_set_no": 999,
        "meta_rev_at_epoch": 87448,
        "meta_bstar": 0.00055747484,
        "meta_mean_motion_dot": 2.019e-05,
        "meta_mean_motion_ddot": 0,
        "tle_line1": "1 34846U 93036ABQ 25349.79541030  .00002019  00000+0  55747-3 0  9990",
        "tle_line2": "2 34846  74.0310 256.0607 0026148 322.0428  37.8887 14.47235054874487"
      },
      "geometry": {
        "type": "Point",
        "coordinates": [
          70.58485462947266,
          13.248115699581547
        ]
      }
    }
  ]
}